STARLINK-1007           
1 44713C 19074A   22335.91090278  .00009963  00000-0  66763-3 0  3353
2 44713  53.0545 145.7139 0001400  71.5731  96.8569 15.06383304    19
STARLINK-1008           
1 44714C 19074B   22335.93312500  .00020843  00000-0  13971-2 0  3353
2 44714  53.0528 145.5997 0001469  76.4331 327.5563 15.06363361    15
STARLINK-1009           
1 44715C 19074C   22335.93590278  .00008581  00000-0  57498-3 0  3352
2 44715  53.0529 145.6008 0001597  89.7643  29.2596 15.06385439    18
STARLINK-1010           
1 44716C 19074D   22335.90048611  .00009454  00000-0  63362-3 0  3356
2 44716  53.0519 145.7537 0001732  65.3907 121.4600 15.06378546    12
STARLINK-1011           
1 44717C 19074E   22335.89145833  .00006973  00000-0  46725-3 0  3356
2 44717  53.0538 165.7924 0001961  61.1059  86.7327 15.06387934    12
STARLINK-1012           
1 44718C 19074F   22335.91090278  .00008665  00000-0  58060-3 0  3357
2 44718  53.0532 145.7110 0001726  62.3869 340.9967 15.06386976    13
STARLINK-1013           
1 44719C 19074G   22335.90951389  .00007744  00000-0  51873-3 0  3358
2 44719  53.0534 145.7198 0001555  79.4212 276.4231 15.06399139    15
STARLINK-1014           
1 44720C 19074H   22335.89562500 -.00010289  00000-0 -68928-3 0  3350
2 44720  53.0534 145.7657 0001579  68.4812 117.1391 15.06413381    11
STARLINK-1015           
1 44721C 19074J   22335.88104167  .00007418  00000-0  49699-3 0  3353
2 44721  53.0518 145.8416 0001846  65.8251  95.4996 15.06390963    12
STARLINK-1016           
1 44722C 19074K   22335.76368056  .00113184  00000-0  75784-2 0  3351
2 44722  53.0530 146.3550 0001783  71.7778 157.8990 15.06309598    13
STARLINK-1017           
1 44723C 19074L   22335.90048611  .00009459  00000-0  63358-3 0  3354
2 44723  53.0515 145.7471 0001922  70.6064  96.2408 15.06397184    11
STARLINK-1019           
1 44724C 19074M   22335.90743056  .00009260  00000-0  62062-3 0  3351
2 44724  53.0516 145.7222 0001776  69.6767 334.9012 15.06378884    11
STARLINK-1020           
1 44725C 19074N   22335.90812500  .00005741  00000-0  38471-3 0  3350
2 44725  53.0541 165.7238 0001529  73.9135 304.3417 15.06386910    11
STARLINK-1021           
1 44726C 19074P   22335.90256944  .00009075  00000-0  60802-3 0  3352
2 44726  53.0531 145.7288 0001772  73.6170 324.5242 15.06388773    19
STARLINK-1022           
1 44727C 19074Q   22335.88173611  .00004469  00000-0  29948-3 0  3357
2 44727  53.0527 185.8414 0001620  65.9782  24.3093 15.06387222    13
STARLINK-1024           
1 44729C 19074S   22335.89909722  .00035415  00000-0  15929-2 0  3358
2 44729  52.9983 142.4409 0003230 171.0216   7.5243 15.20547873    18
STARLINK-1026           
1 44731C 19074U   22335.91506944 -.00017378  00000-0 -11643-2 0  3352
2 44731  53.0521 145.6909 0001997  62.3911 343.5982 15.06416311    12
STARLINK-1027           
1 44732C 19074V   22335.91229167  .00006710  00000-0  44971-3 0  3359
2 44732  53.0542 165.7002 0001786  64.6870  36.2085 15.06379958    13
STARLINK-1028           
1 44733C 19074W   22335.91298611  .00010139  00000-0  67918-3 0  3356
2 44733  53.0529 145.6827 0001458  91.1682  23.4829 15.06397574    11
STARLINK-1029           
1 44734C 19074X   22335.86715278 -.00008501  00000-0 -56943-3 0  3352
2 44734  53.0532  65.9003 0001658  56.1562  89.8193 15.06417615    15
STARLINK-1030           
1 44735C 19074Y   22335.90465278  .00005748  00000-0  38512-3 0  3350
2 44735  53.0535 165.7428 0002260  33.9178 345.5297 15.06388625    10
STARLINK-1031           
1 44736C 19074Z   22335.91368056 -.00007879  00000-0 -52791-3 0  3352
2 44736  53.0538 165.6865 0001622  68.1023 280.3290 15.06405372    16
STARLINK-1032           
1 44737C 19074AA  22335.88798611  .00006816  00000-0  45665-3 0  3353
2 44737  53.0525 165.8077 0001747  64.3256  84.6869 15.06394660    18
STARLINK-1033           
1 44738C 19074BA  22335.90951389  .00005989  00000-0  40122-3 0  3353
2 44738  53.0516 165.7170 0001976  59.2437 286.5738 15.06394980    13
STARLINK-1035           
1 44740C 19074AD  22335.88451389  .00006424  00000-0  43060-3 0  3357
2 44740  53.0521 165.8255 0001704  62.9767  87.2238 15.06377253    18
STARLINK-1036           
1 44741C 19074AE  22335.89840278  .00007794  00000-0  52229-3 0  3356
2 44741  53.0522 165.7628 0002114  68.9934  96.5422 15.06385119    19
STARLINK-1038           
1 44743C 19074AG  22335.91229167 -.00015633  00000-0 -10475-2 0  3358
2 44743  53.0524 185.7003 0001602  66.7526 264.1528 15.06413548    14
STARLINK-1039           
1 44744C 19074AH  22335.87687500  .00007506  00000-0  50292-3 0  3353
2 44744  53.0529 185.8649 0001716  69.4338   9.3246 15.06389986    18
STARLINK-1041           
1 44746C 19074AK  22335.90534722  .00008273  00000-0  55437-3 0  3354
2 44746  53.0517 185.7359 0001828  60.8405 252.4021 15.06384204    18
STARLINK-1042           
1 44747C 19074AL  22335.89215278 -.00014310  00000-0 -95880-3 0  3352
2 44747  53.0524 185.7850 0001834  62.7597  18.8979 15.06411265    17
STARLINK-1043           
1 44748C 19074AM  22335.89770833  .00000145  00000-0  97412-5 0  3350
2 44748  53.0532 185.7635 0001866  66.8864 244.8744 15.06399030    11
STARLINK-1046           
1 44751C 19074AQ  22335.91298611  .00008725  00000-0  58473-3 0  3350
2 44751  53.0524 185.7046 0001811  58.0903 256.5979 15.06381924    12
STARLINK-1047           
1 44752C 19074AR  22335.90673611  .00008114  00000-0  54358-3 0  3357
2 44752  53.0514 165.7262 0002098  62.8598 107.8529 15.06394325    19
STARLINK-1048           
1 44753C 19074AS  22335.91437500  .00010521  00000-0  70506-3 0  3352
2 44753  53.0529 145.6947 0001574  68.2672 113.8966 15.06381235    12
STARLINK-1049           
1 44754C 19074AT  22335.89145833  .00009872  00000-0  66125-3 0  3354
2 44754  53.0529 145.7958 0002120  62.0488 335.7800 15.06398597    12
STARLINK-1034           
1 44757C 19074AW  22335.91159722  .00006937  00000-0  46467-3 0  3358
2 44757  53.0524 165.7071 0001560  78.5568  58.5306 15.06401806    15
STARLINK-1053           
1 44758C 19074AX  22335.89979167  .00007045  00000-0  47210-3 0  3357
2 44758  53.0527 185.8375 0001323  88.5981 254.4726 15.06384929    15
STARLINK-1054           
1 44759C 19074AY  22335.89979167 -.00013791  00000-0 -92410-3 0  3357
2 44759  53.0541 185.7566 0001393  84.2237 358.8849 15.06409225    19
STARLINK-1055           
1 44760C 19074AZ  22335.88451389 -.00014455  00000-0 -96856-3 0  3355
2 44760  53.0538 185.8335 0002054  53.9898  26.2071 15.06410375    14
STARLINK-1056           
1 44761C 19074BA  22335.89631944 -.00018207  00000-0 -12199-2 0  3350
2 44761  53.0532 185.7802 0001850  61.9547  22.3050 15.06417335    17
STARLINK-1057           
1 44762C 19074BB  22335.91090278 -.00010071  00000-0 -67486-3 0  3354
2 44762  53.0522 165.7079 0001401  83.8117  69.5851 15.06402616    17
STARLINK-1058           
1 44763C 19074BC  22335.89840278 -.00015591  00000-0 -10446-2 0  3350
2 44763  53.0535 185.7436 0001522  87.1754 253.5147 15.06414380    13
STARLINK-1059           
1 44764C 19074BD  22335.90118056  .00006854  00000-0  40162-3 0  3354
2 44764  53.0547 163.1964 0003649 161.3070 218.1746 15.11284972    11
STARLINK-1060           
1 44765C 19074BE  22335.90118056  .00005881  00000-0  39411-3 0  3359
2 44765  53.0528 165.7514 0001622  73.3957 307.2298 15.06385447    10
STARLINK-1061           
1 44766C 19074BF  22335.91159722  .00008061  00000-0  53996-3 0  3353
2 44766  53.0513 185.7052 0001555  77.1252   9.9737 15.06400291    18
STARLINK-1062           
1 44767C 19074BG  22335.90465278  .00004470  00000-0  29942-3 0  3353
2 44767  53.0536 185.7309 0001809  61.7195  32.8978 15.06400538    12
STARLINK-1063           
1 44768C 19074BH  22335.90118056 -.00016569  00000-0 -11101-2 0  3354
2 44768  53.0534 185.7403 0002017  59.6918 250.9390 15.06414554    11
STARLINK-1067           
1 44771C 19074BL  22335.89562500 -.00004890  00000-0 -32755-3 0  3356
2 44771  53.0536 185.7759 0001871  56.9699 283.5136 15.06410584    13
STARLINK-1068           
1 44772C 19074BM  22335.90812500  .00006514  00000-0  43642-3 0  3357
2 44772  53.0531 165.7112 0001763  58.8577  39.4322 15.06392992    13
STARLINK-1073           
1 44914C 20001A   22335.90951389 -.00006171  00000-0 -41346-3 0  3356
2 44914  53.0542 305.7094 0001642  61.7725 314.0890 15.06403603    16
STARLINK-1084           
1 44915C 20001B   22335.91020833  .00013734  00000-0  92067-3 0  3356
2 44915  53.0524 305.7171 0001885  53.2943 166.3678 15.06365077    14
STARLINK-1098           
1 44917C 20001D   22335.91368056 -.00013381  00000-0 -89645-3 0  3358
2 44917  53.0544 305.6858 0002135  43.3054 175.1796 15.06415128    13
STARLINK-1099           
1 44918C 20001E   22335.91298611 -.00002229  00000-0 -14938-3 0  3350
2 44918  53.0550 305.7196 0001590  56.6925  83.1380 15.06397992    10
STARLINK-1102           
1 44920C 20001G   22335.91437500  .00014192  00000-0  91209-3 0  3351
2 44920  53.0534 305.4217 0003047  61.7994 157.9225 15.07917396    13
STARLINK-1103           
1 44921C 20001H   22335.90256944  .00008846  00000-0  59288-3 0  3352
2 44921  53.0518 305.7403 0001684  51.9879 211.3040 15.06376282    16
STARLINK-1104           
1 44922C 20001J   22335.91437500 -.00004682  00000-0 -31367-3 0  3357
2 44922  53.0545 305.6932 0001551  50.1853  92.1148 15.06405552    16
STARLINK-1106           
1 44923C 20001K   22335.88798611 -.00011042  00000-0 -73978-3 0  3359
2 44923  53.0536 305.8127 0001652  53.9267 165.1300 15.06411674    10
STARLINK-1111           
1 44924C 20001L   22335.91437500  .00004118  00000-0  27591-3 0  3355
2 44924  53.0535 305.6996 0001778  57.6427   4.6166 15.06391354    19
STARLINK-1112           
1 44925C 20001M   22335.89493056 -.00008255  00000-0 -55302-3 0  3350
2 44925  53.0541 305.7733 0001707  54.2689 182.4616 15.06410531    16
STARLINK-1113           
